STARLINK-30822          
1 58193U 23167U   26068.56274316  .00001074  00000+0  49710-4 0  9997
2 58193  43.0017 144.2908 0000495 333.5405  26.5421 15.26729916130969
FLOCK 4G-27             
1 62641U 25009AJ  26068.75406453  .00012587  00000+0  47455-3 0  9991
2 62641  97.3976 150.8631 0000756 322.4974  37.6212 15.27199247 63710
